ONEWEB-0057             
1 45160U 20008AF  26122.18038596 -.00000057  00000+0 -19896-3 0  9998
2 45160  87.8857  45.4263 0002130  92.6884 267.4487 13.10369955302328
ONEWEB-0058             
1 45161U 20008AG  26122.01439627  .00000477  00000+0  13297-2 0  9993
2 45161  87.8853  45.4668 0001992  74.3478 285.7869 13.10370618302375
ONEWEB-0059             
1 45162U 20008AH  26122.01095529  .00000591  00000+0  16553-2 0  9998
2 45162  87.8849  45.4672 0002114  77.9200 282.2164 13.10372986302274
ONEWEB-0062             
1 45163U 20008AJ  26122.03639118  .00021573  00000+0  61454-1 0  9991
2 45163  87.8867  45.4518 0001875  53.0714 307.0585 13.10559181302145
ONEWEB-0065             
1 45164U 20008AK  26122.14358920  .00000273  00000+0  74663-3 0  9995
2 45164  87.8861  45.4333 0001797  90.0204 270.1129 13.10376077301855
ONEWEB-0066             
1 45424U 20020A   26122.13974420 -.00000102  00000+0 -32340-3 0  9995
2 45424  87.8927  30.2262 0001987  78.1757 281.9594 13.11415935296645
ONEWEB-0067             
1 45425U 20020B   26122.17783824  .00000286  00000+0  77201-3 0  9992
2 45425  87.8945  30.1331 0001861  87.3416 272.7925 13.11423684296700
ONEWEB-0080             
1 45426U 20020C   26122.17719135  .00000211  00000+0  56036-3 0  9998
2 45426  87.8934  30.2117 0001810  68.8151 291.3170 13.11419412296675
ONEWEB-0090             
1 45427U 20020D   26122.12970610  .00000389  00000+0  10607-2 0  9990
2 45427  87.8932  30.2264 0001820  77.2520 282.8812 13.11416835296632
ONEWEB-0061             
1 45428U 20020E   26122.16164407 -.00000326  00000+0 -95506-3 0  9999
2 45428  87.8932  30.2053 0001834  77.5085 282.6248 13.11419485296593
ONEWEB-0081             
1 45429U 20020F   26122.14312183 -.00000185  00000+0 -55832-3 0  9995
2 45429  87.8923  30.2216 0001989  82.5627 277.5726 13.11414216296708
ONEWEB-0069             
1 45430U 20020G   26122.13482110  .00000151  00000+0  39222-3 0  9990
2 45430  87.8926  30.2204 0001894  80.9449 279.1893 13.10855384296638
ONEWEB-0031             
1 45431U 20020H   26122.18043478  .00000398  00000+0  10865-2 0  9990
2 45431  87.8922  30.2245 0001778  72.8799 287.2523 13.11419640296620
ONEWEB-0027             
1 45432U 20020J   26122.13668314  .00000145  00000+0  34143-3 0  9994
2 45432  87.9189  14.9986 0001448  74.8962 285.2329 13.17649903300290
ONEWEB-0064             
1 45433U 20020K   26122.17873613  .00000295  00000+0  79514-3 0  9996
2 45433  87.8922  30.2152 0001703  74.6671 285.4645 13.11419970296650
ONEWEB-0018             
1 45434U 20020L   26122.13465994  .00000193  00000+0  50737-3 0  9995
2 45434  87.8922  30.2235 0002171  74.1217 286.0150 13.11415649296594
