[{"OBJECT_NAME":"ONEWEB-0057","OBJECT_ID":"2020-008AF","EPOCH":"2026-05-02T04:19:45.346944","MEAN_MOTION":13.10369955,"ECCENTRICITY":0.000213,"INCLINATION":87.8857,"RA_OF_ASC_NODE":45.4263,"ARG_OF_PERICENTER":92.6884,"MEAN_ANOMALY":267.4487,"EPHEMERIS_TYPE":0,"CLASSIFICATION_TYPE":"U","NORAD_CAT_ID":45160,"ELEMENT_SET_NO":999,"REV_AT_EPOCH":30232,"BSTAR":-0.00019896,"MEAN_MOTION_DOT":-5.7e-07,"MEAN_MOTION_DDOT":0.0},{"OBJECT_NAME":"ONEWEB-0058","OBJECT_ID":"2020-008AG","EPOCH":"2026-05-02T00:20:43.837728","MEAN_MOTION":13.10370618,"ECCENTRICITY":0.0001992,"INCLINATION":87.8853,"RA_OF_ASC_NODE":45.4668,"ARG_OF_PERICENTER":74.3478,"MEAN_ANOMALY":285.7869,"EPHEMERIS_TYPE":0,"CLASSIFICATION_TYPE":"U","NORAD_CAT_ID":45161,"ELEMENT_SET_NO":999,"REV_AT_EPOCH":30237,"BSTAR":0.0013297,"MEAN_MOTION_DOT":4.77e-06,"MEAN_MOTION_DDOT":0.0},{"OBJECT_NAME":"ONEWEB-0059","OBJECT_ID":"2020-008AH","EPOCH":"2026-05-02T00:15:46.537056","MEAN_MOTION":13.10372986,"ECCENTRICITY":0.0002114,"INCLINATION":87.8849,"RA_OF_ASC_NODE":45.4672,"ARG_OF_PERICENTER":77.92,"MEAN_ANOMALY":282.2164,"EPHEMERIS_TYPE":0,"CLASSIFICATION_TYPE":"U","NORAD_CAT_ID":45162,"ELEMENT_SET_NO":999,"REV_AT_EPOCH":30227,"BSTAR":0.0016553000000000002,"MEAN_MOTION_DOT":5.91e-06,"MEAN_MOTION_DDOT":0.0},{"OBJECT_NAME":"ONEWEB-0062","OBJECT_ID":"2020-008AJ","EPOCH":"2026-05-02T00:52:24.197952","MEAN_MOTION":13.10559181,"ECCENTRICITY":0.0001875,"INCLINATION":87.8867,"RA_OF_ASC_NODE":45.4518,"ARG_OF_PERICENTER":53.0714,"MEAN_ANOMALY":307.0585,"EPHEMERIS_TYPE":0,"CLASSIFICATION_TYPE":"U","NORAD_CAT_ID":45163,"ELEMENT_SET_NO":999,"REV_AT_EPOCH":30214,"BSTAR":0.061454,"MEAN_MOTION_DOT":0.00021573,"MEAN_MOTION_DDOT":0.0},{"OBJECT_NAME":"ONEWEB-0065","OBJECT_ID":"2020-008AK","EPOCH":"2026-05-02T03:26:46.106880","MEAN_MOTION":13.10376077,"ECCENTRICITY":0.0001797,"INCLINATION":87.8861,"RA_OF_ASC_NODE":45.4333,"ARG_OF_PERICENTER":90.0204,"MEAN_ANOMALY":270.1129,"EPHEMERIS_TYPE":0,"CLASSIFICATION_TYPE":"U","NORAD_CAT_ID":45164,"ELEMENT_SET_NO":999,"REV_AT_EPOCH":30185,"BSTAR":0.0007466300000000001,"MEAN_MOTION_DOT":2.73e-06,"MEAN_MOTION_DDOT":0.0},{"OBJECT_NAME":"ONEWEB-0066","OBJECT_ID":"2020-020A","EPOCH":"2026-05-02T03:21:13.898880","MEAN_MOTION":13.11415935,"ECCENTRICITY":0.0001987,"INCLINATION":87.8927,"RA_OF_ASC_NODE":30.2262,"ARG_OF_PERICENTER":78.1757,"MEAN_ANOMALY":281.9594,"EPHEMERIS_TYPE":0,"CLASSIFICATION_TYPE":"U","NORAD_CAT_ID":45424,"ELEMENT_SET_NO":999,"REV_AT_EPOCH":29664,"BSTAR":-0.00032340000000000005,"MEAN_MOTION_DOT":-1.02e-06,"MEAN_MOTION_DDOT":0.0},{"OBJECT_NAME":"ONEWEB-0067","OBJECT_ID":"2020-020B","EPOCH":"2026-05-02T04:16:05.223936","MEAN_MOTION":13.11423684,"ECCENTRICITY":0.0001861,"INCLINATION":87.8945,"RA_OF_ASC_NODE":30.1331,"ARG_OF_PERICENTER":87.3416,"MEAN_ANOMALY":272.7925,"EPHEMERIS_TYPE":0,"CLASSIFICATION_TYPE":"U","NORAD_CAT_ID":45425,"ELEMENT_SET_NO":999,"REV_AT_EPOCH":29670,"BSTAR":0.00077201,"MEAN_MOTION_DOT":2.86e-06,"MEAN_MOTION_DDOT":0.0},{"OBJECT_NAME":"ONEWEB-0080","OBJECT_ID":"2020-020C","EPOCH":"2026-05-02T04:15:09.332640","MEAN_MOTION":13.11419412,"ECCENTRICITY":0.000181,"INCLINATION":87.8934,"RA_OF_ASC_NODE":30.2117,"ARG_OF_PERICENTER":68.8151,"MEAN_ANOMALY":291.317,"EPHEMERIS_TYPE":0,"CLASSIFICATION_TYPE":"U","NORAD_CAT_ID":45426,"ELEMENT_SET_NO":999,"REV_AT_EPOCH":29667,"BSTAR":0.00056036,"MEAN_MOTION_DOT":2.11e-06,"MEAN_MOTION_DDOT":0.0},{"OBJECT_NAME":"ONEWEB-0090","OBJECT_ID":"2020-020D","EPOCH":"2026-05-02T03:06:46.607040","MEAN_MOTION":13.11416835,"ECCENTRICITY":0.000182,"INCLINATION":87.8932,"RA_OF_ASC_NODE":30.2264,"ARG_OF_PERICENTER":77.252,"MEAN_ANOMALY":282.8812,"EPHEMERIS_TYPE":0,"CLASSIFICATION_TYPE":"U","NORAD_CAT_ID":45427,"ELEMENT_SET_NO":999,"REV_AT_EPOCH":29663,"BSTAR":0.0010607,"MEAN_MOTION_DOT":3.89e-06,"MEAN_MOTION_DDOT":0.0},{"OBJECT_NAME":"ONEWEB-0061","OBJECT_ID":"2020-020E","EPOCH":"2026-05-02T03:52:46.047648","MEAN_MOTION":13.11419485,"ECCENTRICITY":0.0001834,"INCLINATION":87.8932,"RA_OF_ASC_NODE":30.2053,"ARG_OF_PERICENTER":77.5085,"MEAN_ANOMALY":282.6248,"EPHEMERIS_TYPE":0,"CLASSIFICATION_TYPE":"U","NORAD_CAT_ID":45428,"ELEMENT_SET_NO":999,"REV_AT_EPOCH":29659,"BSTAR":-0.0009550600000000001,"MEAN_MOTION_DOT":-3.26e-06,"MEAN_MOTION_DDOT":0.0},{"OBJECT_NAME":"ONEWEB-0081","OBJECT_ID":"2020-020F","EPOCH":"2026-05-02T03:26:05.726112","MEAN_MOTION":13.11414216,"ECCENTRICITY":0.0001989,"INCLINATION":87.8923,"RA_OF_ASC_NODE":30.2216,"ARG_OF_PERICENTER":82.5627,"MEAN_ANOMALY":277.5726,"EPHEMERIS_TYPE":0,"CLASSIFICATION_TYPE":"U","NORAD_CAT_ID":45429,"ELEMENT_SET_NO":999,"REV_AT_EPOCH":29670,"BSTAR":-0.0005583200000000001,"MEAN_MOTION_DOT":-1.85e-06,"MEAN_MOTION_DDOT":0.0},{"OBJECT_NAME":"ONEWEB-0069","OBJECT_ID":"2020-020G","EPOCH":"2026-05-02T03:14:08.543040","MEAN_MOTION":13.10855384,"ECCENTRICITY":0.0001894,"INCLINATION":87.8926,"RA_OF_ASC_NODE":30.2204,"ARG_OF_PERICENTER":80.9449,"MEAN_ANOMALY":279.1893,"EPHEMERIS_TYPE":0,"CLASSIFICATION_TYPE":"U","NORAD_CAT_ID":45430,"ELEMENT_SET_NO":999,"REV_AT_EPOCH":29663,"BSTAR":0.00039222000000000004,"MEAN_MOTION_DOT":1.51e-06,"MEAN_MOTION_DDOT":0.0},{"OBJECT_NAME":"ONEWEB-0031","OBJECT_ID":"2020-020H","EPOCH":"2026-05-02T04:19:49.564992","MEAN_MOTION":13.1141964,"ECCENTRICITY":0.0001778,"INCLINATION":87.8922,"RA_OF_ASC_NODE":30.2245,"ARG_OF_PERICENTER":72.8799,"MEAN_ANOMALY":287.2523,"EPHEMERIS_TYPE":0,"CLASSIFICATION_TYPE":"U","NORAD_CAT_ID":45431,"ELEMENT_SET_NO":999,"REV_AT_EPOCH":29662,"BSTAR":0.0010865,"MEAN_MOTION_DOT":3.98e-06,"MEAN_MOTION_DDOT":0.0},{"OBJECT_NAME":"ONEWEB-0027","OBJECT_ID":"2020-020J","EPOCH":"2026-05-02T03:16:49.423296","MEAN_MOTION":13.17649903,"ECCENTRICITY":0.0001448,"INCLINATION":87.9189,"RA_OF_ASC_NODE":14.9986,"ARG_OF_PERICENTER":74.8962,"MEAN_ANOMALY":285.2329,"EPHEMERIS_TYPE":0,"CLASSIFICATION_TYPE":"U","NORAD_CAT_ID":45432,"ELEMENT_SET_NO":999,"REV_AT_EPOCH":30029,"BSTAR":0.00034143000000000004,"MEAN_MOTION_DOT":1.45e-06,"MEAN_MOTION_DDOT":0.0},{"OBJECT_NAME":"ONEWEB-0064","OBJECT_ID":"2020-020K","EPOCH":"2026-05-02T04:17:22.801632","MEAN_MOTION":13.1141997,"ECCENTRICITY":0.0001703,"INCLINATION":87.8922,"RA_OF_ASC_NODE":30.2152,"ARG_OF_PERICENTER":74.6671,"MEAN_ANOMALY":285.4645,"EPHEMERIS_TYPE":0,"CLASSIFICATION_TYPE":"U","NORAD_CAT_ID":45433,"ELEMENT_SET_NO":999,"REV_AT_EPOCH":29665,"BSTAR":0.00079514,"MEAN_MOTION_DOT":2.95e-06,"MEAN_MOTION_DDOT":0.0},{"OBJECT_NAME":"ONEWEB-0018","OBJECT_ID":"2020-020L","EPOCH":"2026-05-02T03:13:54.618816","MEAN_MOTION":13.11415649,"ECCENTRICITY":0.0002171,"INCLINATION":87.8922,"RA_OF_ASC_NODE":30.2235,"ARG_OF_PERICENTER":74.1217,"MEAN_ANOMALY":286.015,"EPHEMERIS_TYPE":0,"CLASSIFICATION_TYPE":"U","NORAD_CAT_ID":45434,"ELEMENT_SET_NO":999,"REV_AT_EPOCH":29659,"BSTAR":0.00050737,"MEAN_MOTION_DOT":1.93e-06,"MEAN_MOTION_DDOT":0.0}]